{"epoch":1784799577,"count":18318,"objects":[{"id":"25757","name":"TUBSAT","type":"PAYLOAD","l1":"1 25757U 99029B   26203.90960889  .00000072  00000-0  29482-4 0  9995","l2":"2 25757  98.6717 200.5928 0013148 239.2754 120.7146 14.52434512438435"},{"id":"28054","name":"DMSP 5D-3 F16 (USA 172)","type":"PAYLOAD","l1":"1 28054U 03048A   26203.89842801 -.00000018  00000-0  14097-4 0  9992","l2":"2 28054  98.9887 227.9617 0007909  52.2619  69.4744 14.14484926174531"},{"id":"29522","name":"DMSP 5D-3 F17 (USA 191)","type":"PAYLOAD","l1":"1 29522U 06050A   26203.94955150  .00000018  00000-0  31578-4 0  9999","l2":"2 29522  98.7391 209.7897 0009299 319.4411  40.6069 14.14996720 17481"},{"id":"35681","name":"DEIMOS 1","type":"PAYLOAD","l1":"1 35681U 09041A   26203.93078133  .00000365  00000-0  61045-4 0  9998","l2":"2 35681  97.7448 359.6173 0002806  82.3614 277.7914 14.75268688912158"},{"id":"35682","name":"DUBAISAT 1","type":"PAYLOAD","l1":"1 35682U 09041B   26203.29315964  .00000638  00000-0  10194-3 0  9995","l2":"2 35682  98.0092 336.1753 0009420 324.3179  35.7399 14.75174542910271"},{"id":"35951","name":"DMSP 5D-3 F18 (USA 210)","type":"PAYLOAD","l1":"1 35951U 09057A   26203.92314267  .00000227  00000-0  14073-3 0  9990","l2":"2 35951  98.9063 184.6193 0011648 144.3614 215.8339 14.14915400864643"},{"id":"40013","name":"DEIMOS 2","type":"PAYLOAD","l1":"1 40013U 14033D   26203.95381706  .00001340  00000-0  13145-3 0  9996","l2":"2 40013  97.5787  77.1789 0001545 104.3447 255.7945 14.93813710643063"},{"id":"41884","name":"CYGFM05","type":"PAYLOAD","l1":"1 41884U 16078A   26203.88291712  .00029391  00000-0  37636-3 0  9990","l2":"2 41884  34.9577  23.9441 0005267 122.5417 237.5817 15.58145909534324"},{"id":"41888","name":"CYGFM08","type":"PAYLOAD","l1":"1 41888U 16078E   26203.81477673  .00033456  00000-0  37191-3 0  9992","l2":"2 41888  34.9440   3.7491 0006125 153.0035 207.1010 15.61809306534541"},{"id":"41890","name":"CYGFM07","type":"PAYLOAD","l1":"1 41890U 16078G   26203.77156149  .00032344  00000-0  35825-3 0  9999","l2":"2 41890  34.9457 352.3471 0004919 170.5432 189.5387 15.61915340534565"}]}