{
 "generated_at": "2026-07-23T07:33:13Z",
 "sources": [
  {
   "name": "CelesTrak",
   "url": "https://celestrak.org/NORAD/elements/",
   "license": "frei verfügbar; Attribution. Ursprünglich USSPACECOM/Space-Track."
  },
  {
   "name": "GCAT (J. McDowell, planet4589.org)",
   "url": "https://planet4589.org/space/gcat/",
   "license": "CC-BY 4.0"
  }
 ],
 "satellites": [
  {
   "norad": 41884,
   "name": "CYGFM05",
   "intl": "2016-078A",
   "group": "weather",
   "gcat": {
    "class": "C",
    "category": "EOSCI",
    "owner": "LARCN/SWRIB",
    "state": "US"
   },
   "omm": {
    "OBJECT_NAME": "CYGFM05",
    "OBJECT_ID": "2016-078A",
    "EPOCH": "2026-07-22T21:11:24.039168",
    "MEAN_MOTION": 15.58145909,
    "ECCENTRICITY": 0.00052669,
    "INCLINATION": 34.9577,
    "RA_OF_ASC_NODE": 23.9441,
    "ARG_OF_PERICENTER": 122.5417,
    "MEAN_ANOMALY": 237.5817,
    "EPHEMERIS_TYPE": 0,
    "CLASSIFICATION_TYPE": "U",
    "NORAD_CAT_ID": 41884,
    "ELEMENT_SET_NO": 999,
    "REV_AT_EPOCH": 53432,
    "BSTAR": 0.00037636089,
    "MEAN_MOTION_DOT": 0.00029391,
    "MEAN_MOTION_DDOT": 0
   }
  },
  {
   "norad": 41890,
   "name": "CYGFM07",
   "intl": "2016-078G",
   "group": "weather",
   "gcat": {
    "class": "C",
    "category": "EOSCI",
    "owner": "LARCN/SWRIB",
    "state": "US"
   },
   "omm": {
    "OBJECT_NAME": "CYGFM07",
    "OBJECT_ID": "2016-078G",
    "EPOCH": "2026-07-22T18:31:02.912736",
    "MEAN_MOTION": 15.6191534,
    "ECCENTRICITY": 0.00049192,
    "INCLINATION": 34.9457,
    "RA_OF_ASC_NODE": 352.3471,
    "ARG_OF_PERICENTER": 170.5432,
    "MEAN_ANOMALY": 189.5387,
    "EPHEMERIS_TYPE": 0,
    "CLASSIFICATION_TYPE": "U",
    "NORAD_CAT_ID": 41890,
    "ELEMENT_SET_NO": 999,
    "REV_AT_EPOCH": 53456,
    "BSTAR": 0.00035825198,
    "MEAN_MOTION_DOT": 0.00032344,
    "MEAN_MOTION_DDOT": 0
   }
  },
  {
   "norad": 41888,
   "name": "CYGFM08",
   "intl": "2016-078E",
   "group": "weather",
   "gcat": {
    "class": "C",
    "category": "EOSCI",
    "owner": "LARCN/SWRIB",
    "state": "US"
   },
   "omm": {
    "OBJECT_NAME": "CYGFM08",
    "OBJECT_ID": "2016-078E",
    "EPOCH": "2026-07-22T19:33:16.709472",
    "MEAN_MOTION": 15.61809306,
    "ECCENTRICITY": 0.00061254,
    "INCLINATION": 34.944,
    "RA_OF_ASC_NODE": 3.7491,
    "ARG_OF_PERICENTER": 153.0035,
    "MEAN_ANOMALY": 207.101,
    "EPHEMERIS_TYPE": 0,
    "CLASSIFICATION_TYPE": "U",
    "NORAD_CAT_ID": 41888,
    "ELEMENT_SET_NO": 999,
    "REV_AT_EPOCH": 53454,
    "BSTAR": 0.00037190773,
    "MEAN_MOTION_DOT": 0.00033456,
    "MEAN_MOTION_DDOT": 0
   }
  },
  {
   "norad": 35681,
   "name": "DEIMOS-1",
   "intl": "2009-041A",
   "group": "resource",
   "gcat": {
    "class": "B",
    "category": "IMG",
    "owner": "DEIMOS",
    "state": "E"
   },
   "omm": {
    "OBJECT_NAME": "DEIMOS-1",
    "OBJECT_ID": "2009-041A",
    "EPOCH": "2026-07-22T22:20:19.506912",
    "MEAN_MOTION": 14.75268688,
    "ECCENTRICITY": 0.00028057,
    "INCLINATION": 97.7448,
    "RA_OF_ASC_NODE": 359.6173,
    "ARG_OF_PERICENTER": 82.3614,
    "MEAN_ANOMALY": 277.7914,
    "EPHEMERIS_TYPE": 0,
    "CLASSIFICATION_TYPE": "U",
    "NORAD_CAT_ID": 35681,
    "ELEMENT_SET_NO": 999,
    "REV_AT_EPOCH": 91215,
    "BSTAR": 0.000061044884,
    "MEAN_MOTION_DOT": 0.00000365,
    "MEAN_MOTION_DDOT": 0
   }
  },
  {
   "norad": 40013,
   "name": "DEIMOS-2",
   "intl": "2014-033D",
   "group": "resource",
   "gcat": {
    "class": "B",
    "category": "IMG",
    "owner": "ELDEC",
    "state": "E"
   },
   "omm": {
    "OBJECT_NAME": "DEIMOS-2",
    "OBJECT_ID": "2014-033D",
    "EPOCH": "2026-07-22T22:53:29.793984",
    "MEAN_MOTION": 14.9381371,
    "ECCENTRICITY": 0.0001545,
    "INCLINATION": 97.5787,
    "RA_OF_ASC_NODE": 77.1789,
    "ARG_OF_PERICENTER": 104.3447,
    "MEAN_ANOMALY": 255.7945,
    "EPHEMERIS_TYPE": 0,
    "CLASSIFICATION_TYPE": "U",
    "NORAD_CAT_ID": 40013,
    "ELEMENT_SET_NO": 999,
    "REV_AT_EPOCH": 64306,
    "BSTAR": 0.00013145272,
    "MEAN_MOTION_DOT": 0.0000134,
    "MEAN_MOTION_DDOT": 0
   }
  },
  {
   "norad": 25757,
   "name": "DLR-TUBSAT",
   "intl": "1999-029B",
   "group": "resource",
   "gcat": {
    "class": null,
    "category": null,
    "owner": null,
    "state": null
   },
   "omm": {
    "OBJECT_NAME": "DLR-TUBSAT",
    "OBJECT_ID": "1999-029B",
    "EPOCH": "2026-07-22T21:49:50.208096",
    "MEAN_MOTION": 14.52434512,
    "ECCENTRICITY": 0.00131476,
    "INCLINATION": 98.6717,
    "RA_OF_ASC_NODE": 200.5928,
    "ARG_OF_PERICENTER": 239.2754,
    "MEAN_ANOMALY": 120.7146,
    "EPHEMERIS_TYPE": 0,
    "CLASSIFICATION_TYPE": "U",
    "NORAD_CAT_ID": 25757,
    "ELEMENT_SET_NO": 999,
    "REV_AT_EPOCH": 43843,
    "BSTAR": 0.000029482139,
    "MEAN_MOTION_DOT": 7.2e-7,
    "MEAN_MOTION_DDOT": 0
   }
  },
  {
   "norad": 28054,
   "name": "DMSP 5D-3 F16 (USA 172)",
   "intl": "2003-048A",
   "group": "weather",
   "gcat": {
    "class": null,
    "category": null,
    "owner": null,
    "state": null
   },
   "omm": {
    "OBJECT_NAME": "DMSP 5D-3 F16 (USA 172)",
    "OBJECT_ID": "2003-048A",
    "EPOCH": "2026-07-22T21:33:44.180064",
    "MEAN_MOTION": 14.14484926,
    "ECCENTRICITY": 0.00079092,
    "INCLINATION": 98.9887,
    "RA_OF_ASC_NODE": 227.9617,
    "ARG_OF_PERICENTER": 52.2619,
    "MEAN_ANOMALY": 69.4744,
    "EPHEMERIS_TYPE": 0,
    "CLASSIFICATION_TYPE": "U",
    "NORAD_CAT_ID": 28054,
    "ELEMENT_SET_NO": 999,
    "REV_AT_EPOCH": 17453,
    "BSTAR": 0.000014096554,
    "MEAN_MOTION_DOT": -1.8e-7,
    "MEAN_MOTION_DDOT": 0
   }
  },
  {
   "norad": 29522,
   "name": "DMSP 5D-3 F17 (USA 191)",
   "intl": "2006-050A",
   "group": "weather",
   "gcat": {
    "class": "D",
    "category": "MET",
    "owner": "AFSMC",
    "state": "US"
   },
   "omm": {
    "OBJECT_NAME": "DMSP 5D-3 F17 (USA 191)",
    "OBJECT_ID": "2006-050A",
    "EPOCH": "2026-07-22T22:47:21.249600",
    "MEAN_MOTION": 14.1499672,
    "ECCENTRICITY": 0.00092989,
    "INCLINATION": 98.7391,
    "RA_OF_ASC_NODE": 209.7897,
    "ARG_OF_PERICENTER": 319.4411,
    "MEAN_ANOMALY": 40.6069,
    "EPHEMERIS_TYPE": 0,
    "CLASSIFICATION_TYPE": "U",
    "NORAD_CAT_ID": 29522,
    "ELEMENT_SET_NO": 999,
    "REV_AT_EPOCH": 1748,
    "BSTAR": 0.000031578487,
    "MEAN_MOTION_DOT": 1.8e-7,
    "MEAN_MOTION_DDOT": 0
   }
  },
  {
   "norad": 35951,
   "name": "DMSP 5D-3 F18 (USA 210)",
   "intl": "2009-057A",
   "group": "weather",
   "gcat": {
    "class": "D",
    "category": "MET",
    "owner": "AFSMC",
    "state": "US"
   },
   "omm": {
    "OBJECT_NAME": "DMSP 5D-3 F18 (USA 210)",
    "OBJECT_ID": "2009-057A",
    "EPOCH": "2026-07-22T22:09:19.526688",
    "MEAN_MOTION": 14.149154,
    "ECCENTRICITY": 0.00116479,
    "INCLINATION": 98.9063,
    "RA_OF_ASC_NODE": 184.6193,
    "ARG_OF_PERICENTER": 144.3614,
    "MEAN_ANOMALY": 215.8339,
    "EPHEMERIS_TYPE": 0,
    "CLASSIFICATION_TYPE": "U",
    "NORAD_CAT_ID": 35951,
    "ELEMENT_SET_NO": 999,
    "REV_AT_EPOCH": 86464,
    "BSTAR": 0.00014072855,
    "MEAN_MOTION_DOT": 0.00000227,
    "MEAN_MOTION_DDOT": 0
   }
  },
  {
   "norad": 35682,
   "name": "DUBAISAT-1",
   "intl": "2009-041B",
   "group": "resource",
   "gcat": {
    "class": null,
    "category": null,
    "owner": null,
    "state": null
   },
   "omm": {
    "OBJECT_NAME": "DUBAISAT-1",
    "OBJECT_ID": "2009-041B",
    "EPOCH": "2026-07-22T07:02:08.992896",
    "MEAN_MOTION": 14.75174542,
    "ECCENTRICITY": 0.00094202,
    "INCLINATION": 98.0092,
    "RA_OF_ASC_NODE": 336.1753,
    "ARG_OF_PERICENTER": 324.3179,
    "MEAN_ANOMALY": 35.7399,
    "EPHEMERIS_TYPE": 0,
    "CLASSIFICATION_TYPE": "U",
    "NORAD_CAT_ID": 35682,
    "ELEMENT_SET_NO": 999,
    "REV_AT_EPOCH": 91027,
    "BSTAR": 0.0001019404,
    "MEAN_MOTION_DOT": 0.00000638,
    "MEAN_MOTION_DDOT": 0
   }
  }
 ]
}
